{
  "type": "FeatureCollection",
  "features": [
    {
      "type": "Feature",
      "properties": {
        "norad_id": 44793,
        "name": "BEIDOU-3 M22 (C44)",
        "group": "beidou",
        "lat": 20.828994364729144,
        "lon": -37.92509209223508,
        "alt_km": 21508.62227950288,
        "timestamp": "2025-12-20T07:33:51.078494+00:00",
        "meta_object_name": "BEIDOU-3 M22 (C44)",
        "meta_object_id": "2019-078A",
        "meta_epoch": "2025-12-19T04:51:35.344224",
        "meta_mean_motion": 1.86232161,
        "meta_eccentricity": 0.0006038,
        "meta_inclination": 54.1023,
        "meta_ra_of_asc_node": 306.1592,
        "meta_arg_of_pericenter": 24.3104,
        "meta_mean_anomaly": 335.7082,
        "meta_ephemeris_type": 0,
        "meta_classification_type": "U",
        "meta_norad_cat_id": 44793,
        "meta_element_set_no": 999,
        "meta_rev_at_epoch": 4129,
        "meta_bstar": 0,
        "meta_mean_motion_dot": -7.7e-07,
        "meta_mean_motion_ddot": 0,
        "tle_line1": "1 44793U 19078A   25353.20249241 -.00000077  00000+0  00000+0 0  9997",
        "tle_line2": "2 44793  54.1023 306.1592 0006038  24.3104 335.7082  1.86232161 41295"
      },
      "geometry": {
        "type": "Point",
        "coordinates": [
          -37.92509209223508,
          20.828994364729144
        ]
      }
    },
    {
      "type": "Feature",
      "properties": {
        "norad_id": 44794,
        "name": "BEIDOU-3 M21 (C43)",
        "group": "beidou",
        "lat": -47.93512916247396,
        "lon": -107.31569327045224,
        "alt_km": 21531.43318908266,
        "timestamp": "2025-12-20T07:33:51.078505+00:00",
        "meta_object_name": "BEIDOU-3 M21 (C43)",
        "meta_object_id": "2019-078B",
        "meta_epoch": "2025-12-16T15:43:55.727904",
        "meta_mean_motion": 1.86227668,
        "meta_eccentricity": 0.00041169,
        "meta_inclination": 54.078,
        "meta_ra_of_asc_node": 306.2132,
        "meta_arg_of_pericenter": 11.942,
        "meta_mean_anomaly": 348.0544,
        "meta_ephemeris_type": 0,
        "meta_classification_type": "U",
        "meta_norad_cat_id": 44794,
        "meta_element_set_no": 999,
        "meta_rev_at_epoch": 4125,
        "meta_bstar": 0,
        "meta_mean_motion_dot": -9.5e-07,
        "meta_mean_motion_ddot": 0,
        "tle_line1": "1 44794U 19078B   25350.65550611 -.00000095  00000+0  00000+0 0  9990",
        "tle_line2": "2 44794  54.0780 306.2132 0004116  11.9420 348.0544  1.86227668 41256"
      },
      "geometry": {
        "type": "Point",
        "coordinates": [
          -107.31569327045224,
          -47.93512916247396
        ]
      }
    },
    {
      "type": "Feature",
      "properties": {
        "norad_id": 44864,
        "name": "BEIDOU-3 M19 (C41)",
        "group": "beidou",
        "lat": 40.12512260924569,
        "lon": -145.2930277374736,
        "alt_km": 21569.526142965144,
        "timestamp": "2025-12-20T07:33:51.078517+00:00",
        "meta_object_name": "BEIDOU-3 M19 (C41)",
        "meta_object_id": "2019-090A",
        "meta_epoch": "2025-12-19T16:54:49.288032",
        "meta_mean_motion": 1.86231654,
        "meta_eccentricity": 0.001828,
        "meta_inclination": 56.3986,
        "meta_ra_of_asc_node": 68.7306,
        "meta_arg_of_pericenter": 284.9962,
        "meta_mean_anomaly": 155.1499,
        "meta_ephemeris_type": 0,
        "meta_classification_type": "U",
        "meta_norad_cat_id": 44864,
        "meta_element_set_no": 999,
        "meta_rev_at_epoch": 4089,
        "meta_bstar": 0,
        "meta_mean_motion_dot": -5e-07,
        "meta_mean_motion_ddot": 0,
        "tle_line1": "1 44864U 19090A   25353.70473713 -.00000050  00000+0  00000+0 0  9999",
        "tle_line2": "2 44864  56.3986  68.7306 0018280 284.9962 155.1499  1.86231654 40895"
      },
      "geometry": {
        "type": "Point",
        "coordinates": [
          -145.2930277374736,
          40.12512260924569
        ]
      }
    },
    {
      "type": "Feature",
      "properties": {
        "norad_id": 44865,
        "name": "BEIDOU-3 M20 (C42)",
        "group": "beidou",
        "lat": -31.515354218755604,
        "lon": -87.22078184371169,
        "alt_km": 21523.184532841937,
        "timestamp": "2025-12-20T07:33:51.078528+00:00",
        "meta_object_name": "BEIDOU-3 M20 (C42)",
        "meta_object_id": "2019-090B",
        "meta_epoch": "2025-12-19T13:23:47.716224",
        "meta_mean_motion": 1.86231656,
        "meta_eccentricity": 0.0015458,
        "meta_inclination": 56.4001,
        "meta_ra_of_asc_node": 68.7697,
        "meta_arg_of_pericenter": 297.1258,
        "meta_mean_anomaly": 134.3818,
        "meta_ephemeris_type": 0,
        "meta_classification_type": "U",
        "meta_norad_cat_id": 44865,
        "meta_element_set_no": 999,
        "meta_rev_at_epoch": 4087,
        "meta_bstar": 0,
        "meta_mean_motion_dot": -5.2e-07,
        "meta_mean_motion_ddot": 0,
        "tle_line1": "1 44865U 19090B   25353.55819116 -.00000052  00000+0  00000+0 0  9996",
        "tle_line2": "2 44865  56.4001  68.7697 0015458 297.1258 134.3818  1.86231656 40870"
      },
      "geometry": {
        "type": "Point",
        "coordinates": [
          -87.22078184371169,
          -31.515354218755604
        ]
      }
    },
    {
      "type": "Feature",
      "properties": {
        "norad_id": 45344,
        "name": "BEIDOU-3 G2 (C60)",
        "group": "beidou",
        "lat": -2.169134271339712,
        "lon": -77.38606919245964,
        "alt_km": 35777.23342683435,
        "timestamp": "2025-12-20T07:33:51.078540+00:00",
        "meta_object_name": "BEIDOU-3 G2 (C60)",
        "meta_object_id": "2020-017A",
        "meta_epoch": "2025-12-19T13:38:45.370752",
        "meta_mean_motion": 1.00273166,
        "meta_eccentricity": 0.0002079,
        "meta_inclination": 2.5096,
        "meta_ra_of_asc_node": 44.0024,
        "meta_arg_of_pericenter": 233.0917,
        "meta_mean_anomaly": 96.0359,
        "meta_ephemeris_type": 0,
        "meta_classification_type": "U",
        "meta_norad_cat_id": 45344,
        "meta_element_set_no": 999,
        "meta_rev_at_epoch": 2145,
        "meta_bstar": 0,
        "meta_mean_motion_dot": -1.18e-06,
        "meta_mean_motion_ddot": 0,
        "tle_line1": "1 45344U 20017A   25353.56858068 -.00000118  00000+0  00000+0 0  9993",
        "tle_line2": "2 45344   2.5096  44.0024 0002079 233.0917  96.0359  1.00273166 21451"
      },
      "geometry": {
        "type": "Point",
        "coordinates": [
          -77.38606919245964,
          -2.169134271339712
        ]
      }
    },
    {
      "type": "Feature",
      "properties": {
        "norad_id": 45807,
        "name": "BEIDOU-3 G3 (C61)",
        "group": "beidou",
        "lat": -1.8612100249317614,
        "lon": -46.89440742828663,
        "alt_km": 35774.42973613137,
        "timestamp": "2025-12-20T07:33:51.078551+00:00",
        "meta_object_name": "BEIDOU-3 G3 (C61)",
        "meta_object_id": "2020-040A",
        "meta_epoch": "2025-12-19T15:57:04.317984",
        "meta_mean_motion": 1.0027087,
        "meta_eccentricity": 0.00064381,
        "meta_inclination": 2.0073,
        "meta_ra_of_asc_node": 66.6426,
        "meta_arg_of_pericenter": 309.3483,
        "meta_mean_anomaly": 62.3662,
        "meta_ephemeris_type": 0,
        "meta_classification_type": "U",
        "meta_norad_cat_id": 45807,
        "meta_element_set_no": 999,
        "meta_rev_at_epoch": 2027,
        "meta_bstar": 0,
        "meta_mean_motion_dot": -3.31e-06,
        "meta_mean_motion_ddot": 0,
        "tle_line1": "1 45807U 20040A   25353.66463331 -.00000331  00000+0  00000+0 0  9996",
        "tle_line2": "2 45807   2.0073  66.6426 0006438 309.3483  62.3662  1.00270870 20270"
      },
      "geometry": {
        "type": "Point",
        "coordinates": [
          -46.89440742828663,
          -1.8612100249317614
        ]
      }
    },
    {
      "type": "Feature",
      "properties": {
        "norad_id": 56564,
        "name": "BEIDOU-3 G4 (C62)",
        "group": "beidou",
        "lat": 0.696748555209021,
        "lon": 2.652741107835097,
        "alt_km": 35797.17720871163,
        "timestamp": "2025-12-20T07:33:51.078563+00:00",
        "meta_object_name": "BEIDOU-3 G4 (C62)",
        "meta_object_id": "2023-066A",
        "meta_epoch": "2025-12-19T19:36:37.155744",
        "meta_mean_motion": 1.00271581,
        "meta_eccentricity": 0.00027289,
        "meta_inclination": 0.8001,
        "meta_ra_of_asc_node": 302.5987,
        "meta_arg_of_pericenter": 226.497,
        "meta_mean_anomaly": 13.7807,
        "meta_ephemeris_type": 0,
        "meta_classification_type": "U",
        "meta_norad_cat_id": 56564,
        "meta_element_set_no": 999,
        "meta_rev_at_epoch": 959,
        "meta_bstar": 0,
        "meta_mean_motion_dot": -8.6e-07,
        "meta_mean_motion_ddot": 0,
        "tle_line1": "1 56564U 23066A   25353.81709671 -.00000086  00000+0  00000+0 0  9993",
        "tle_line2": "2 56564   0.8001 302.5987 0002728 226.4970  13.7807  1.00271581  9594"
      },
      "geometry": {
        "type": "Point",
        "coordinates": [
          2.652741107835097,
          0.696748555209021
        ]
      }
    }
  ]
}